{
  "norad_id": 48277,
  "name": "STARLINK-2569",
  "history": [
    {
      "epoch": "2026-03-28T19:37:37.818912Z",
      "apogee_km": 490.7257448570681,
      "perigee_km": 489.33919880409394,
      "latitude_deg": -3.2212636611619575e-06,
      "longitude_deg": 162.17422359415028,
      "height_km": 491.45409076947396,
      "semi_major_axis_km": 6868.169471830581,
      "eccentricity": 0.00010094,
      "inclination_deg": 53.1258,
      "raan_deg": 282.8146,
      "arg_perigee_deg": 220.5509,
      "mean_anomaly_deg": 139.5414,
      "mean_motion_rev_day": 15.25250787
    }
  ]
}