{"fetched_at":"2026-03-29T16:36:15Z","count":15609,"tles":[{"name":"STARLINK-2569","line1":"1 48277U 21036B   26087.81779883  .00046082  00000+0  18112-2 0  9998","line2":"2 48277  53.1258 282.8146 0001009 220.5509 139.5414 15.25250787272222","category":"Starlink"}]}